IRIDIUM 116             
1 43072U 17083C   25060.18442117  .00000887  00000+0  30962-3 0  9991
2 43072  86.4035 159.7306 0002015  93.1616 266.9810 14.34226040376373
IRIDIUM 130             
1 43073U 17083D   25059.73411033  .00000648  00000+0  22424-3 0  9993
2 43073  86.4043 160.1473 0002167  90.1139 270.0305 14.34218802376258
IRIDIUM 151             
1 43074U 17083E   25059.56919052  .00000013  00000+0 -25342-5 0  9990
2 43074  86.4035 160.0342 0001897  96.6772 263.4640 14.34223223376258
IRIDIUM 134             
1 43075U 17083F   25060.23517631  .00000041  00000+0  74752-5 0  9993
2 43075  86.4037 159.7581 0002258  91.3111 268.8343 14.34217755376311
IRIDIUM 137             
1 43076U 17083G   25060.10832288  .00000159  00000+0  49863-4 0  9992
2 43076  86.4038 159.8937 0001519  92.9607 267.1762 14.34217763376366
IRIDIUM 141             
1 43077U 17083H   25059.75313555  .00000660  00000+0  22852-3 0  9998
2 43077  86.4035 159.9000 0002455 102.8086 257.3384 14.34221488376313
IRIDIUM 153             
1 43078U 17083J   25060.19369741  .00000005  00000+0 -52744-5 0  9996
2 43078  86.3983 128.2316 0002564 105.6859 254.4620 14.34217860377483
IRIDIUM 131             
1 43079U 17083K   25059.74045381  .00000092  00000+0  25952-4 0  9992
2 43079  86.4038 160.0589 0002098 102.3959 257.7472 14.34217514376249
